SatCatId,ObjectName,LaunchYear,OrbitalPeriod,LaunchMass,StatusCode,Inclination,Status,UcsData,OrbitClassEstimated,LaunchSiteCountry,Owner,UseType,Purpose,LaunchVehicleClass,TLE1,TLE2,MeanMotion,Eccentricity,OrbitClass
39613,EXPRESS-AT2,2014,1436.1,1427.0,+,0.03,Active,1,GSO,Kazakhstan,Russia/USSR,Commercial,Communications,Proton,1 39613U 14010B   24064.60033166 -.00000277  00000+0  00000+0 0  9994,2 39613   0.0379 272.8677 0000416  24.6238 221.2979  1.00272874 36134,1.00272874,4.16e-05,GEO
39616,AMAZONAS 4A,2014,1436.09,2938.0,P,0.04,Active,1,GSO,French Guiana,Spain,Commercial,Communications,Ariane,1 39616U 14011A   24064.59292282 -.00000248  00000+0  00000+0 0  9990,2 39616   0.0454 134.5979 0002657 206.3249 321.3288  1.00271717 36332,1.00271717,0.0002657,GEO
39617,ASTRA 5B,2014,1436.13,5724.0,+,0.1,Active,1,GSO,French Guiana,SES,Commercial,Communications,Ariane,1 39617U 14011B   24064.56368741  .00000141  00000+0  00000+0 0  9993,2 39617   0.0973 297.3323 0003903  31.9891  59.8948  1.00269770 36297,1.0026977,0.0003903,GEO
39620,COSMOS 2492 [GLONASS-M],2014,675.73,-1.0,+,65.71,Active,0,MEO,Russia,Russia/USSR,Unknown,Unknown,Unknown,1 39620U 14012A   24062.17854575 -.00000061  00000+0  00000+0 0  9990,2 39620  65.7120 342.2285 0014577 325.4981  34.4393  2.13103129 77401,2.13103129,0.0014577,MEO
39624,SJ-11-06,2014,98.62,-1.0,+,98.05,Active,1,LEO,PRC,China,Government,Technology Development,Long March,1 39624U 14014A   24064.58404727  .00000701  00000+0  15500-3 0  9998,2 39624  98.0492 108.3810 0015567  88.9632 271.3352 14.60083479528829,14.60083479,0.0015567,LEO
39634,SENTINEL-1A,2014,98.68,2300.0,+,98.18,Active,1,LEO,French Guiana,ESA,Government,Earth Observation,Soyuz,1 39634U 14016A   24064.57915564  .00000217  00000+0  55838-4 0  9997,2 39634  98.1831  73.1745 0001365  91.0413 269.0943 14.59199011528308,14.59199011,0.0001365,LEO
39635,IRNSS-1B,2014,1436.02,1432.0,+,29.2,Active,1,GSO,India,India,Government,Navigation (Global or Regional Positioning),PSLV,1 39635U 14017A   24064.10604823  .00000136  00000+0  00000+0 0  9997,2 39635  29.1901 254.5890 0018943 177.6532 183.4755  1.00278237 36427,1.00278237,0.0018943,GSO
39727,LUCH-5V,2014,1436.16,1148.0,+,3.03,Active,1,GSO,Kazakhstan,Russia/USSR,Government,Communications,Proton,1 39727U 14023A   24064.59136833 -.00000263  00000+0  00000+0 0  9992,2 39727   3.0357  76.6006 0003079 278.5777 115.1719  1.00266945 35999,1.00266945,0.0003079,GSO
39728,KAZSAT-3,2014,1436.04,-1.0,+,0.01,Active,1,GSO,Kazakhstan,Kazakhstan,Commercial,Communications,Proton,1 39728U 14023B   24064.58414546  .00000065  00000+0  00000+0 0  9991,2 39728   0.0089 181.7095 0000471 194.3497  55.5334  1.00269672 34070,1.00269672,4.71e-05,GEO
39731,KAZEOSAT 1,2014,99.86,830.0,+,98.4,Active,1,LEO,French Guiana,Kazakhstan,Government,Earth Observation,Vega,1 39731U 14024A   24064.57771586  .00000312  00000+0  10825-3 0  9990,2 39731  98.4023 142.7122 0001209  83.2580 276.8747 14.41996613518276,14.41996613,0.0001209,LEO
39741,NAVSTAR 70 (USA 251),2014,717.93,1630.0,+,56.71,Active,1,MEO,USA,USA,Commercial/Military,Navigation (Global or Regional Positioning),Delta,1 39741U 14026A   24063.84437843 -.00000075  00000+0  00000+0 0  9994,2 39741  56.7116   3.9511 0033005 314.0711  45.6640  2.00575773 71783,2.00575773,0.0033005,MEO
39761,COSMOS 2496,2014,115.86,280.0,+,82.44,Active,1,LEO,Russia,Russia/USSR,Military,Communications,Rokot,1 39761U 14028A   24064.58682322  .00000040  00000+0  21774-3 0  9990,2 39761  82.4402 271.4858 0020279  98.0088 262.3294 12.42889318443832,12.42889318,0.0020279,LEO
39762,COSMOS 2497,2014,115.86,280.0,+,82.45,Active,1,LEO,Russia,Russia/USSR,Military,Communications,Rokot,1 39762U 14028B   24064.55977442  .00000047  00000+0  26776-3 0  9992,2 39762  82.4451 272.8610 0020910  91.9311 268.4163 12.42875879443830,12.42875879,0.002091,LEO
39763,COSMOS 2498,2014,115.85,280.0,+,82.44,Active,1,LEO,Russia,Russia/USSR,Military,Communications,Rokot,1 39763U 14028C   24064.59250868  .00000048  00000+0  27639-3 0  9993,2 39763  82.4412 271.6738 0021535  92.0597 268.2949 12.42934426443865,12.42934426,0.0021535,LEO
39766,ALOS-2,2014,97.33,2120.0,+,97.92,Active,1,LEO,Japan,Japan,Government,Earth Observation,H2A,1 39766U 14029A   24064.41454719  .00004531  00000+0  61306-3 0  9999,2 39766  97.9195 162.5674 0001571 102.4359 257.7028 14.79481343528158,14.79481343,0.0001571,LEO
39767,UNIFORM 1,2014,96.77,50.0,+,97.82,Active,1,LEO,Japan,Japan,Civil,Earth Observation,H2A,1 39767U 14029B   24064.49333082  .00003071  00000+0  34016-3 0  9993,2 39767  97.8183 157.6124 0005381 186.8049 173.3095 14.88030494529723,14.88030494,0.0005381,LEO
39768,SOCRATES,2014,96.77,48.0,+,97.87,Active,1,LEO,Japan,Japan,Commercial,Technology Development,H2A,1 39768U 14029C   24064.54202386  .00002761  00000+0  30605-3 0  9997,2 39768  97.8693 166.6215 0006030 212.9433 147.1408 14.88096000529969,14.88096,0.000603,LEO
39769,RISING 2,2014,97.01,41.0,+,97.75,Active,1,LEO,Japan,Japan,Civil,Earth Observation,H2A,1 39769U 14029D   24064.52305278  .00001502  00000+0  18456-3 0  9992,2 39769  97.7451 141.3807 0004159 175.1837 184.9419 14.84456601529128,14.84456601,0.0004159,LEO
39770,SPROUT,2014,94.57,7.1,+,98.0,Active,1,LEO,Japan,Japan,Civil,Technology Development,H2A,1 39770U 14029E   24064.34927229  .00072551  00000+0  30700-2 0  9997,2 39770  98.0044 208.1989 0004242 206.2753 153.8267 15.22891745531585,15.22891745,0.0004242,LEO
39773,EUTELSAT 3B,2014,1436.09,5967.0,+,0.07,Active,1,GSO,Sea Launch Platform,EUTELSAT,Commercial,Communications,Zenit,1 39773U 14030A   24064.57300657  .00000025  00000+0  00000+0 0  9991,2 39773   0.0668  13.1731 0002367 229.5957 129.4049  1.00272483 35693,1.00272483,0.0002367,GEO
40001,COSMOS 2500 [GLONASS-M],2014,675.72,1415.0,+,65.65,Active,1,MEO,Russia,Russia/USSR,Commercial/Military,Navigation (Global or Regional Positioning),Soyuz,1 40001U 14032A   24061.89013752 -.00000062  00000+0  00000+0 0  9990,2 40001  65.6497 342.0517 0004844 218.0400 141.9582  2.13106058 75616,2.13106058,0.0004844,MEO
40010,KAZEOSAT 2,2014,97.15,185.0,+,97.64,Active,1,LEO,Russia,Kazakhstan,Government,Earth Observation,Dnepr,1 40010U 14033A   24064.62878664  .00000786  00000+0  10444-3 0  9995,2 40010  97.6371 294.5595 0011884 184.3017 175.8096 14.82311134525179,14.82311134,0.0011884,LEO
40011,HODOYOSHI-4,2014,97.05,60.0,+,97.6,Active,1,LEO,Russia,Japan,Government,Technology Development,Dnepr,1 40011U 14033B   24064.58796601  .00001791  00000+0  22149-3 0  9993,2 40011  97.5954 279.4092 0025349 180.9868 179.1301 14.83730616524847,14.83730616,0.0025349,LEO
40012,UNISAT-6,2014,97.38,-1.0,+,97.69,Active,0,LEO,Russia,Italy,Unknown,Unknown,Unknown,1 40012U 14033C   24064.43559135  .00004158  00000+0  55998-3 0  9995,2 40012  97.6905 231.2822 0052746 287.0600  72.4837 14.78747079522354,14.78747079,0.0052746,LEO
40013,DEIMOS-2,2014,96.77,310.0,+,97.7,Active,1,LEO,Russia,Spain,Government,Earth Observation,Dnepr,1 40013U 14033D   24064.58601151  .00002519  00000+0  27951-3 0  9995,2 40013  97.6953 314.3799 0001098 117.5027 242.6302 14.88109092513332,14.88109092,0.0001098,LEO
40014,BUGSAT-1 (TITA),2014,95.85,25.0,+,98.14,Active,1,LEO,Russia,Argentina,Commercial,Technology Development,Dnepr,1 40014U 14033E   24064.56409514  .00005704  00000+0  42846-3 0  9992,2 40014  98.1431 100.9319 0038364 122.9697 237.5224 15.02441093529921,15.02441093,0.0038364,LEO
40015,HODOYOSHI-3,2014,97.26,60.0,+,97.6,Active,1,LEO,Russia,Japan,Government,Technology Development,Dnepr,1 40015U 14033F   24064.50032019  .00002491  00000+0  32759-3 0  9991,2 40015  97.5975 255.7824 0034793 216.3654 143.5195 14.80625756523888,14.80625756,0.0034793,LEO
40016,SAUDISAT 4,2014,97.51,-1.0,+,97.66,Active,0,LEO,Russia,Saudi Arabia,Unknown,Unknown,Unknown,1 40016U 14033G   24064.45904151  .00001219  00000+0  17791-3 0  9997,2 40016  97.6553 235.5252 0045726 269.0500  90.5472 14.76817734522743,14.76817734,0.0045726,LEO
40018,APRIZESAT 9,2014,97.85,12.0,+,97.78,Active,1,LEO,Russia,USA,Commercial,Communications/Maritime Tracking,Dnepr,1 40018U 14033J   24064.35255525  .00000956  00000+0  15595-3 0  9999,2 40018  97.7848 214.3684 0069445   4.8589 355.3277 14.71584593520655,14.71584593,0.0069445,LEO
40019,APRIZESAT 10,2014,98.06,12.0,+,97.85,Active,1,LEO,Russia,USA,Commercial,Communications/Maritime Tracking,Dnepr,1 40019U 14033K   24064.35709746  .00000994  00000+0  17071-3 0  9992,2 40019  97.8487 205.8068 0083153  59.7382 301.2021 14.68543840519616,14.6854384,0.0083153,LEO
40020,BRITE-CA1 (TORONTO),2014,98.03,10.0,+,97.86,Active,1,LEO,Russia,Canada,Civil,Space Science,Dnepr,1 40020U 14033L   24064.34193565  .00001566  00000+0  26125-3 0  9995,2 40020  97.8584 205.2989 0084955  67.2465 293.7691 14.68960810519471,14.6896081,0.0084955,LEO
40021,DUCHIFAT-1,2014,95.76,-1.0,+,98.08,Active,0,LEO,Russia,Israel,Unknown,Unknown,Unknown,1 40021U 14033M   24064.48057033  .00016198  00000+0  11789-2 0  9996,2 40021  98.0841  43.2794 0015681  93.4632 266.8386 15.03781414528374,15.03781414,0.0015681,LEO
40024,NANOSATC-BR1,2014,95.96,-1.0,+,98.06,Active,0,LEO,Russia,Brazil,Unknown,Unknown,Unknown,1 40024U 14033Q   24064.14819420  .00015495  00000+0  12263-2 0  9995,2 40024  98.0593  32.1950 0011222 149.7195 210.4678 15.00657237527480,15.00657237,0.0011222,LEO
40025,QB50P1,2014,96.15,-1.0,+,98.03,Active,0,LEO,Russia,Belgium,Unknown,Unknown,Unknown,1 40025U 14033R   24064.39591513  .00008871  00000+0  76223-3 0  9990,2 40025  98.0293  21.9588 0011219 139.6314 220.5742 14.97637091527180,14.97637091,0.0011219,LEO
40030,DTUSAT-2,2014,96.23,-1.0,+,98.0,Active,0,LEO,Russia,Denmark,Unknown,Unknown,Unknown,1 40030U 14033W   24064.37504957  .00007616  00000+0  67471-3 0  9991,2 40030  97.9961  14.2787 0011011 136.8748 223.3337 14.96495904527019,14.96495904,0.0011011,LEO
